{"fetched_at":"2026-07-20T07:40:22.620Z","source":"https://celestrak.org/NORAD/elements/gp.php?GROUP=oneweb&FORMAT=JSON","constellation":"oneweb","records":[{"OBJECT_NAME":"ONEWEB-0116","OBJECT_ID":"2021-025E","EPOCH":"2026-07-19T19:21:48.009888","CLASSIFICATION_TYPE":"U","MEAN_MOTION":13.13470258,"ECCENTRICITY":0.0001849,"INCLINATION":87.8988,"RA_OF_ASC_NODE":313.7291,"ARG_OF_PERICENTER":103.1449,"MEAN_ANOMALY":256.9886,"EPHEMERIS_TYPE":0,"NORAD_CAT_ID":48046,"ELEMENT_SET_NO":999,"REV_AT_EPOCH":25793,"BSTAR":-0.00076599,"MEAN_MOTION_DOT":-0.00000267,"MEAN_MOTION_DDOT":0},{"OBJECT_NAME":"ONEWEB-0150","OBJECT_ID":"2021-025F","EPOCH":"2026-07-19T18:47:41.095392","CLASSIFICATION_TYPE":"U","MEAN_MOTION":13.13470035,"ECCENTRICITY":0.000184,"INCLINATION":87.8993,"RA_OF_ASC_NODE":313.731,"ARG_OF_PERICENTER":94.5824,"MEAN_ANOMALY":265.5516,"EPHEMERIS_TYPE":0,"NORAD_CAT_ID":48047,"ELEMENT_SET_NO":999,"REV_AT_EPOCH":25782,"BSTAR":0.00031433,"MEAN_MOTION_DOT":0.00000128,"MEAN_MOTION_DDOT":0},{"OBJECT_NAME":"ONEWEB-0107","OBJECT_ID":"2021-025G","EPOCH":"2026-07-19T18:50:06.650016","CLASSIFICATION_TYPE":"U","MEAN_MOTION":13.13471824,"ECCENTRICITY":0.0002093,"INCLINATION":87.8993,"RA_OF_ASC_NODE":313.7265,"ARG_OF_PERICENTER":97.2806,"MEAN_ANOMALY":262.8561,"EPHEMERIS_TYPE":0,"NORAD_CAT_ID":48048,"ELEMENT_SET_NO":999,"REV_AT_EPOCH":25780,"BSTAR":0.000065147,"MEAN_MOTION_DOT":3.7e-7,"MEAN_MOTION_DDOT":0},{"OBJECT_NAME":"ONEWEB-0101","OBJECT_ID":"2021-025H","EPOCH":"2026-07-19T19:46:10.746336","CLASSIFICATION_TYPE":"U","MEAN_MOTION":13.13471508,"ECCENTRICITY":0.0002106,"INCLINATION":87.8977,"RA_OF_ASC_NODE":313.7313,"ARG_OF_PERICENTER":101.4871,"MEAN_ANOMALY":258.6494,"EPHEMERIS_TYPE":0,"NORAD_CAT_ID":48049,"ELEMENT_SET_NO":999,"REV_AT_EPOCH":25778,"BSTAR":0.00002955,"MEAN_MOTION_DOT":2.4e-7,"MEAN_MOTION_DDOT":0},{"OBJECT_NAME":"ONEWEB-0113","OBJECT_ID":"2021-025J","EPOCH":"2026-07-19T18:16:30.376416","CLASSIFICATION_TYPE":"U","MEAN_MOTION":13.13890775,"ECCENTRICITY":0.0001869,"INCLINATION":87.8983,"RA_OF_ASC_NODE":313.6509,"ARG_OF_PERICENTER":96.1722,"MEAN_ANOMALY":263.9621,"EPHEMERIS_TYPE":0,"NORAD_CAT_ID":48050,"ELEMENT_SET_NO":999,"REV_AT_EPOCH":25788,"BSTAR":0.00073322,"MEAN_MOTION_DOT":0.00000282,"MEAN_MOTION_DDOT":0},{"OBJECT_NAME":"ONEWEB-0112","OBJECT_ID":"2021-025K","EPOCH":"2026-07-19T18:57:25.989696","CLASSIFICATION_TYPE":"U","MEAN_MOTION":13.1346939,"ECCENTRICITY":0.0002188,"INCLINATION":87.899,"RA_OF_ASC_NODE":313.7239,"ARG_OF_PERICENTER":100.3137,"MEAN_ANOMALY":259.8239,"EPHEMERIS_TYPE":0,"NORAD_CAT_ID":48051,"ELEMENT_SET_NO":999,"REV_AT_EPOCH":25787,"BSTAR":-0.00034056,"MEAN_MOTION_DOT":-0.00000112,"MEAN_MOTION_DDOT":0},{"OBJECT_NAME":"ONEWEB-0156","OBJECT_ID":"2021-025L","EPOCH":"2026-07-19T19:09:35.642880","CLASSIFICATION_TYPE":"U","MEAN_MOTION":13.13471925,"ECCENTRICITY":0.0001992,"INCLINATION":87.8989,"RA_OF_ASC_NODE":313.7319,"ARG_OF_PERICENTER":96.5267,"MEAN_ANOMALY":263.6089,"EPHEMERIS_TYPE":0,"NORAD_CAT_ID":48052,"ELEMENT_SET_NO":999,"REV_AT_EPOCH":25785,"BSTAR":-0.00092327,"MEAN_MOTION_DOT":-0.00000324,"MEAN_MOTION_DDOT":0},{"OBJECT_NAME":"ONEWEB-0161","OBJECT_ID":"2021-025M","EPOCH":"2026-07-19T18:33:02.867040","CLASSIFICATION_TYPE":"U","MEAN_MOTION":13.13472974,"ECCENTRICITY":0.000206,"INCLINATION":87.8989,"RA_OF_ASC_NODE":313.7379,"ARG_OF_PERICENTER":95.0143,"MEAN_ANOMALY":265.1222,"EPHEMERIS_TYPE":0,"NORAD_CAT_ID":48053,"ELEMENT_SET_NO":999,"REV_AT_EPOCH":25778,"BSTAR":0.00075903,"MEAN_MOTION_DOT":0.0000029,"MEAN_MOTION_DDOT":0},{"OBJECT_NAME":"ONEWEB-0158","OBJECT_ID":"2021-025N","EPOCH":"2026-07-19T19:24:14.921856","CLASSIFICATION_TYPE":"U","MEAN_MOTION":13.13471563,"ECCENTRICITY":0.0001882,"INCLINATION":87.8985,"RA_OF_ASC_NODE":313.729,"ARG_OF_PERICENTER":109.7747,"MEAN_ANOMALY":250.3585,"EPHEMERIS_TYPE":0,"NORAD_CAT_ID":48054,"ELEMENT_SET_NO":999,"REV_AT_EPOCH":25791,"BSTAR":-0.00076394,"MEAN_MOTION_DOT":-0.00000266,"MEAN_MOTION_DDOT":0},{"OBJECT_NAME":"ONEWEB-0157","OBJECT_ID":"2021-025P","EPOCH":"2026-07-19T18:11:06.340128","CLASSIFICATION_TYPE":"U","MEAN_MOTION":13.13471741,"ECCENTRICITY":0.0002282,"INCLINATION":87.8989,"RA_OF_ASC_NODE":313.7434,"ARG_OF_PERICENTER":94.8738,"MEAN_ANOMALY":265.2651,"EPHEMERIS_TYPE":0,"NORAD_CAT_ID":48055,"ELEMENT_SET_NO":999,"REV_AT_EPOCH":25784,"BSTAR":0.00065593,"MEAN_MOTION_DOT":0.00000252,"MEAN_MOTION_DDOT":0},{"OBJECT_NAME":"ONEWEB-0162","OBJECT_ID":"2021-025Q","EPOCH":"2026-07-19T19:26:29.641920","CLASSIFICATION_TYPE":"U","MEAN_MOTION":13.13470148,"ECCENTRICITY":0.0001861,"INCLINATION":87.8984,"RA_OF_ASC_NODE":313.7329,"ARG_OF_PERICENTER":95.6019,"MEAN_ANOMALY":264.5323,"EPHEMERIS_TYPE":0,"NORAD_CAT_ID":48056,"ELEMENT_SET_NO":999,"REV_AT_EPOCH":25782,"BSTAR":-0.00086278,"MEAN_MOTION_DOT":-0.00000302,"MEAN_MOTION_DDOT":0},{"OBJECT_NAME":"ONEWEB-0155","OBJECT_ID":"2021-025R","EPOCH":"2026-07-19T19:36:24.943968","CLASSIFICATION_TYPE":"U","MEAN_MOTION":13.13474245,"ECCENTRICITY":0.0002076,"INCLINATION":87.8989,"RA_OF_ASC_NODE":313.7283,"ARG_OF_PERICENTER":96.7279,"MEAN_ANOMALY":263.4087,"EPHEMERIS_TYPE":0,"NORAD_CAT_ID":48057,"ELEMENT_SET_NO":999,"REV_AT_EPOCH":25796,"BSTAR":-0.0016114,"MEAN_MOTION_DOT":-0.00000576,"MEAN_MOTION_DDOT":0},{"OBJECT_NAME":"ONEWEB-0149","OBJECT_ID":"2021-025S","EPOCH":"2026-07-19T18:18:26.307936","CLASSIFICATION_TYPE":"U","MEAN_MOTION":13.13469982,"ECCENTRICITY":0.0001857,"INCLINATION":87.8986,"RA_OF_ASC_NODE":313.7434,"ARG_OF_PERICENTER":94.7324,"MEAN_ANOMALY":265.4017,"EPHEMERIS_TYPE":0,"NORAD_CAT_ID":48058,"ELEMENT_SET_NO":999,"REV_AT_EPOCH":25776,"BSTAR":0.00083551,"MEAN_MOTION_DOT":0.00000318,"MEAN_MOTION_DDOT":0},{"OBJECT_NAME":"ONEWEB-0148","OBJECT_ID":"2021-025T","EPOCH":"2026-07-19T19:14:29.636160","CLASSIFICATION_TYPE":"U","MEAN_MOTION":13.13469638,"ECCENTRICITY":0.0001848,"INCLINATION":87.8983,"RA_OF_ASC_NODE":313.7404,"ARG_OF_PERICENTER":82.9004,"MEAN_ANOMALY":277.2335,"EPHEMERIS_TYPE":0,"NORAD_CAT_ID":48059,"ELEMENT_SET_NO":999,"REV_AT_EPOCH":25789,"BSTAR":-0.00076107,"MEAN_MOTION_DOT":-0.00000265,"MEAN_MOTION_DDOT":0},{"OBJECT_NAME":"ONEWEB-0160","OBJECT_ID":"2021-025U","EPOCH":"2026-07-19T19:38:51.940608","CLASSIFICATION_TYPE":"U","MEAN_MOTION":13.13469974,"ECCENTRICITY":0.0001561,"INCLINATION":87.898,"RA_OF_ASC_NODE":313.7331,"ARG_OF_PERICENTER":121.1119,"MEAN_ANOMALY":239.0163,"EPHEMERIS_TYPE":0,"NORAD_CAT_ID":48060,"ELEMENT_SET_NO":999,"REV_AT_EPOCH":25784,"BSTAR":-0.00022636,"MEAN_MOTION_DOT":-7e-7,"MEAN_MOTION_DDOT":0},{"OBJECT_NAME":"ONEWEB-0163","OBJECT_ID":"2021-025V","EPOCH":"2026-07-19T19:16:55.957152","CLASSIFICATION_TYPE":"U","MEAN_MOTION":13.13469442,"ECCENTRICITY":0.0002232,"INCLINATION":87.8992,"RA_OF_ASC_NODE":313.7331,"ARG_OF_PERICENTER":96.172,"MEAN_ANOMALY":263.9664,"EPHEMERIS_TYPE":0,"NORAD_CAT_ID":48061,"ELEMENT_SET_NO":999,"REV_AT_EPOCH":25796,"BSTAR":-0.00099196,"MEAN_MOTION_DOT":-0.00000349,"MEAN_MOTION_DDOT":0}]}
