ONEWEB-0116             
1 48046U 21025E   26200.80680567 -.00000267  00000+0 -76599-3 0  9997
2 48046  87.8988 313.7291 0001849 103.1449 256.9886 13.13470258257936
ONEWEB-0150             
1 48047U 21025F   26200.78311453  .00000128  00000+0  31433-3 0  9992
2 48047  87.8993 313.7310 0001840  94.5824 265.5516 13.13470035257823
ONEWEB-0107             
1 48048U 21025G   26200.78479919  .00000037  00000+0  65147-4 0  9994
2 48048  87.8993 313.7265 0002093  97.2806 262.8561 13.13471824257809
ONEWEB-0101             
1 48049U 21025H   26200.82373549  .00000024  00000+0  29550-4 0  9996
2 48049  87.8977 313.7313 0002106 101.4871 258.6494 13.13471508257785
ONEWEB-0113             
1 48050U 21025J   26200.76146269  .00000282  00000+0  73322-3 0  9999
2 48050  87.8983 313.6509 0001869  96.1722 263.9621 13.13890775257883
ONEWEB-0112             
1 48051U 21025K   26200.78988414 -.00000112  00000+0 -34056-3 0  9993
2 48051  87.8990 313.7239 0002188 100.3137 259.8239 13.13469390257879
ONEWEB-0156             
1 48052U 21025L   26200.79832920 -.00000324  00000+0 -92327-3 0  9995
2 48052  87.8989 313.7319 0001992  96.5267 263.6089 13.13471925257850
ONEWEB-0161             
1 48053U 21025M   26200.77294985  .00000290  00000+0  75903-3 0  9998
2 48053  87.8989 313.7379 0002060  95.0143 265.1222 13.13472974257784
ONEWEB-0158             
1 48054U 21025N   26200.80850604 -.00000266  00000+0 -76394-3 0  9999
2 48054  87.8985 313.7290 0001882 109.7747 250.3585 13.13471563257913
ONEWEB-0157             
1 48055U 21025P   26200.75771227  .00000252  00000+0  65593-3 0  9999
2 48055  87.8989 313.7434 0002282  94.8738 265.2651 13.13471741257846
ONEWEB-0162             
1 48056U 21025Q   26200.81006530 -.00000302  00000+0 -86278-3 0  9996
2 48056  87.8984 313.7329 0001861  95.6019 264.5323 13.13470148257824
ONEWEB-0155             
1 48057U 21025R   26200.81695537 -.00000576  00000+0 -16114-2 0  9992
2 48057  87.8989 313.7283 0002076  96.7279 263.4087 13.13474245257960
ONEWEB-0149             
1 48058U 21025S   26200.76280449  .00000318  00000+0  83551-3 0  9991
2 48058  87.8986 313.7434 0001857  94.7324 265.4017 13.13469982257766
ONEWEB-0148             
1 48059U 21025T   26200.80173190 -.00000265  00000+0 -76107-3 0  9993
2 48059  87.8983 313.7404 0001848  82.9004 277.2335 13.13469638257891
ONEWEB-0160             
1 48060U 21025U   26200.81865672 -.00000070  00000+0 -22636-3 0  9991
2 48060  87.8980 313.7331 0001561 121.1119 239.0163 13.13469974257847
ONEWEB-0163             
1 48061U 21025V   26200.80342543 -.00000349  00000+0 -99196-3 0  9992
2 48061  87.8992 313.7331 0002232  96.1720 263.9664 13.13469442257961
